CCSDS_OMM_VERS = 2.0
CREATION_DATE  = 
ORIGINATOR     = 

OBJECT_NAME    = CZ-2C R/B
OBJECT_ID      = 2022-058K
CENTER_NAME    = EARTH
REF_FRAME      = TEME
TIME_SYSTEM    = UTC
MEAN_ELEMENT_THEORY = SGP/SGP4

EPOCH          = 2025-11-30T17:40:52.291776
MEAN_MOTION    = 15.47610921
ECCENTRICITY   = .00468503
INCLINATION    = 50.1898
RA_OF_ASC_NODE = 104.7222
ARG_OF_PERICENTER = 148.8667
MEAN_ANOMALY   = 211.5091

EPHEMERIS_TYPE = 0
CLASSIFICATION_TYPE = U
NORAD_CAT_ID   = 52794
ELEMENT_SET_NO = 999
REV_AT_EPOCH   = 19477
BSTAR          = .5429924E-3
MEAN_MOTION_DOT = .29435E-3
MEAN_MOTION_DDOT = 0

CCSDS_OMM_VERS = 2.0
CREATION_DATE  = 
ORIGINATOR     = 

OBJECT_NAME    = CZ-2C R/B
OBJECT_ID      = 2022-132E
CENTER_NAME    = EARTH
REF_FRAME      = TEME
TIME_SYSTEM    = UTC
MEAN_ELEMENT_THEORY = SGP/SGP4

EPOCH          = 2025-11-30T22:52:54.388128
MEAN_MOTION    = 15.53715452
ECCENTRICITY   = .0023965
INCLINATION    = 97.2949
RA_OF_ASC_NODE = 330.9368
ARG_OF_PERICENTER = 95.4034
MEAN_ANOMALY   = 264.9954

EPHEMERIS_TYPE = 0
CLASSIFICATION_TYPE = U
NORAD_CAT_ID   = 54039
ELEMENT_SET_NO = 999
REV_AT_EPOCH   = 17500
BSTAR          = .47866204E-3
MEAN_MOTION_DOT = .3098E-3
MEAN_MOTION_DDOT = 0

CCSDS_OMM_VERS = 2.0
CREATION_DATE  = 
ORIGINATOR     = 

OBJECT_NAME    = GSLV R/B
OBJECT_ID      = 2022-138AN
CENTER_NAME    = EARTH
REF_FRAME      = TEME
TIME_SYSTEM    = UTC
MEAN_ELEMENT_THEORY = SGP/SGP4

EPOCH          = 2025-12-01T03:36:56.103840
MEAN_MOTION    = 14.96033735
ECCENTRICITY   = .00229594
INCLINATION    = 87.3840
RA_OF_ASC_NODE = 199.3540
ARG_OF_PERICENTER = 144.0220
MEAN_ANOMALY   = 216.2562

EPHEMERIS_TYPE = 0
CLASSIFICATION_TYPE = U
NORAD_CAT_ID   = 54149
ELEMENT_SET_NO = 999
REV_AT_EPOCH   = 16919
BSTAR          = .24697907E-3
MEAN_MOTION_DOT = .2814E-4
MEAN_MOTION_DDOT = 0

CCSDS_OMM_VERS = 2.0
CREATION_DATE  = 
ORIGINATOR     = 

OBJECT_NAME    = XRISM
OBJECT_ID      = 2023-137A
CENTER_NAME    = EARTH
REF_FRAME      = TEME
TIME_SYSTEM    = UTC
MEAN_ELEMENT_THEORY = SGP/SGP4

EPOCH          = 2025-12-01T00:05:31.560864
MEAN_MOTION    = 15.10172860
ECCENTRICITY   = .00076031
INCLINATION    = 31.0006
RA_OF_ASC_NODE = 201.3095
ARG_OF_PERICENTER = 126.2801
MEAN_ANOMALY   = 233.8540

EPHEMERIS_TYPE = 0
CLASSIFICATION_TYPE = U
NORAD_CAT_ID   = 57800
ELEMENT_SET_NO = 999
REV_AT_EPOCH   = 12285
BSTAR          = .36141881E-3
MEAN_MOTION_DOT = .6145E-4
MEAN_MOTION_DDOT = 0

CCSDS_OMM_VERS = 2.0
CREATION_DATE  = 
ORIGINATOR     = 

OBJECT_NAME    = ACS3
OBJECT_ID      = 2024-077B
CENTER_NAME    = EARTH
REF_FRAME      = TEME
TIME_SYSTEM    = UTC
MEAN_ELEMENT_THEORY = SGP/SGP4

EPOCH          = 2025-12-01T02:57:35.679168
MEAN_MOTION    = 13.84654408
ECCENTRICITY   = .00762461
INCLINATION    = 97.2809
RA_OF_ASC_NODE = 293.3219
ARG_OF_PERICENTER = 1.9933
MEAN_ANOMALY   = 358.1518

EPHEMERIS_TYPE = 0
CLASSIFICATION_TYPE = U
NORAD_CAT_ID   = 59588
ELEMENT_SET_NO = 999
REV_AT_EPOCH   = 8053
BSTAR          = .39515831E-1
MEAN_MOTION_DOT = .45657E-3
MEAN_MOTION_DDOT = 0

